[	{		"ID": 1,		"zipCode": "18088",		"city": "Walnutport"	},	{		"ID": 2,		"zipCode": "12065",		"city": "Clifton Park"	},	{		"ID": 3,		"zipCode": "17846",		"city": "Millville"	},	{		"ID": 4,		"zipCode": "19155",		"city": "Philadelphia"	},	{		"ID": 5,		"zipCode": "14425",		"city": "Farmington"	},	{		"ID": 6,		"zipCode": "15748",		"city": "Homer City"	},	{		"ID": 7,		"zipCode": "20785",		"city": "Hyattsville"	},	{		"ID": 8,		"zipCode": "15056",		"city": "Leetsdale"	},	{		"ID": 9,		"zipCode": "01832",		"city": "Haverhill"	},	{		"ID": 10,		"zipCode": "14738",		"city": "Frewsburg"	},	{		"ID": 11,		"zipCode": "20747",		"city": "District Heights"	},	{		"ID": 12,		"zipCode": "15825",		"city": "Brookville"	},	{		"ID": 13,		"zipCode": "12138",		"city": "Petersburg"	},	{		"ID": 14,		"zipCode": "04739",		"city": "Eagle Lake"	},	{		"ID": 15,		"zipCode": "08006",		"city": "Barnegat Light"	},	{		"ID": 16,		"zipCode": "18440",		"city": "La Plume"	},	{		"ID": 17,		"zipCode": "07960",		"city": "Morristown"	},	{		"ID": 18,		"zipCode": "01784",		"city": "Woodville"	},	{		"ID": 19,		"zipCode": "06423",		"city": "East Haddam"	},	{		"ID": 20,		"zipCode": "19903",		"city": "Dover"	},	{		"ID": 21,		"zipCode": "12490",		"city": "West Camp"	},	{		"ID": 22,		"zipCode": "19950",		"city": "Greenwood"	},	{		"ID": 23,		"zipCode": "05469",		"city": "Monkton"	},	{		"ID": 24,		"zipCode": "12288",		"city": "Albany"	},	{		"ID": 25,		"zipCode": "15017",		"city": "Bridgeville"	},	{		"ID": 26,		"zipCode": "12405",		"city": "Acra"	},	{		"ID": 27,		"zipCode": "06753",		"city": "Cornwall"	},	{		"ID": 28,		"zipCode": "15076",		"city": "Russellton"	},	{		"ID": 29,		"zipCode": "08048",		"city": "Lumberton"	},	{		"ID": 30,		"zipCode": "15364",		"city": "Sycamore"	},	{		"ID": 31,		"zipCode": "16512",		"city": "Erie"	},	{		"ID": 32,		"zipCode": "04057",		"city": "North Bridgton"	},	{		"ID": 33,		"zipCode": "02535",		"city": "Aquinnah"	},	{		"ID": 34,		"zipCode": "16631",		"city": "Curryville"	},	{		"ID": 35,		"zipCode": "08034",		"city": "Cherry Hill"	},	{		"ID": 36,		"zipCode": "12015",		"city": "Athens"	},	{		"ID": 37,		"zipCode": "10588",		"city": "Shrub Oak"	},	{		"ID": 38,		"zipCode": "03449",		"city": "Hancock"	},	{		"ID": 39,		"zipCode": "18470",		"city": "Union Dale"	},	{		"ID": 40,		"zipCode": "15678",		"city": "Rillton"	},	{		"ID": 41,		"zipCode": "12569",		"city": "Pleasant Valley"	},	{		"ID": 42,		"zipCode": "0801",		"city": "St. Thomas"	},	{		"ID": 43,		"zipCode": "16837",		"city": "Glen Richey"	},	{		"ID": 44,		"zipCode": "08853",		"city": "Neshanic Station"	},	{		"ID": 45,		"zipCode": "02720",		"city": "Fall River"	},	{		"ID": 46,		"zipCode": "12121",		"city": "Melrose"	},	{		"ID": 47,		"zipCode": "21606",		"city": "Easton"	},	{		"ID": 48,		"zipCode": "13616",		"city": "Calcium"	},	{		"ID": 49,		"zipCode": "17125",		"city": "Harrisburg"	},	{		"ID": 50,		"zipCode": "21286",		"city": "Towson"	},	{		"ID": 51,		"zipCode": "01088",		"city": "West Hatfield"	},	{		"ID": 52,		"zipCode": "08561",		"city": "Windsor"	},	{		"ID": 53,		"zipCode": "20906",		"city": "Silver Spring"	},	{		"ID": 54,		"zipCode": "17944",		"city": "Llewellyn"	},	{		"ID": 55,		"zipCode": "15413",		"city": "Allison"	},	{		"ID": 56,		"zipCode": "11978",		"city": "Westhampton Beach"	},	{		"ID": 57,		"zipCode": "11545",		"city": "Glen Head"	},	{		"ID": 58,		"zipCode": "17232",		"city": "Lurgan"	},	{		"ID": 59,		"zipCode": "20782",		"city": "Hyattsville"	},	{		"ID": 60,		"zipCode": "06280",		"city": "Windham"	},	{		"ID": 61,		"zipCode": "14741",		"city": "Great Valley"	},	{		"ID": 62,		"zipCode": "14847",		"city": "Interlaken"	},	{		"ID": 63,		"zipCode": "12506",		"city": "Bangall"	},	{		"ID": 64,		"zipCode": "21130",		"city": "Perryman"	},	{		"ID": 65,		"zipCode": "18175",		"city": "Allentown"	},	{		"ID": 66,		"zipCode": "04570",		"city": "Squirrel Island"	},	{		"ID": 67,		"zipCode": "16249",		"city": "Rural Valley"	},	{		"ID": 68,		"zipCode": "06422",		"city": "Durham"	},	{		"ID": 69,		"zipCode": "16881",		"city": "Woodland"	},	{		"ID": 70,		"zipCode": "19052",		"city": "Lenni"	},	{		"ID": 71,		"zipCode": "01504",		"city": "Blackstone"	},	{		"ID": 72,		"zipCode": "11577",		"city": "Roslyn Heights"	},	{		"ID": 73,		"zipCode": "21056",		"city": "Gibson Island"	},	{		"ID": 74,		"zipCode": "15752",		"city": "Kent"	},	{		"ID": 75,		"zipCode": "15207",		"city": "Pittsburgh"	},	{		"ID": 76,		"zipCode": "03874",		"city": "Seabrook"	},	{		"ID": 77,		"zipCode": "02191",		"city": "Weymouth"	},	{		"ID": 78,		"zipCode": "06840",		"city": "New Canaan"	},	{		"ID": 79,		"zipCode": "14812",		"city": "Beaver Dams"	},	{		"ID": 80,		"zipCode": "04112",		"city": "Portland"	},	{		"ID": 81,		"zipCode": "16426",		"city": "McKean"	},	{		"ID": 82,		"zipCode": "18327",		"city": "Delaware Water Gap"	},	{		"ID": 83,		"zipCode": "13068",		"city": "Freeville"	},	{		"ID": 84,		"zipCode": "16424",		"city": "Linesville"	},	{		"ID": 85,		"zipCode": "04496",		"city": "Winterport"	},	{		"ID": 86,		"zipCode": "19105",		"city": "Philadelphia"	},	{		"ID": 87,		"zipCode": "05903",		"city": "Canaan"	},	{		"ID": 88,		"zipCode": "08514",		"city": "Cream Ridge"	},	{		"ID": 89,		"zipCode": "13786",		"city": "Harpersfield"	},	{		"ID": 90,		"zipCode": "12745",		"city": "Hortonville"	},	{		"ID": 91,		"zipCode": "13752",		"city": "Delancey"	},	{		"ID": 92,		"zipCode": "21128",		"city": "Perry Hall"	},	{		"ID": 93,		"zipCode": "12762",		"city": "Mongaup Valley"	},	{		"ID": 94,		"zipCode": "07303",		"city": "Jersey City"	},	{		"ID": 95,		"zipCode": "08695",		"city": "Trenton"	},	{		"ID": 96,		"zipCode": "06708",		"city": "Waterbury"	},	{		"ID": 97,		"zipCode": "13034",		"city": "Cayuga"	},	{		"ID": 98,		"zipCode": "19526",		"city": "Hamburg"	},	{		"ID": 99,		"zipCode": "20057",		"city": "Georgetown University"	},	{		"ID": 100,		"zipCode": "21679",		"city": "Wye Mills"	},	{		"ID": 101,		"zipCode": "13740",		"city": "Bovina Center"	},	{		"ID": 102,		"zipCode": "12998",		"city": "Witherbee"	},	{		"ID": 103,		"zipCode": "15361",		"city": "Southview"	},	{		"ID": 104,		"zipCode": "16317",		"city": "Cooperstown"	},	{		"ID": 105,		"zipCode": "02339",		"city": "Hanover"	},	{		"ID": 106,		"zipCode": "01092",		"city": "West Warren"	},	{		"ID": 107,		"zipCode": "10101",		"city": "New York City"	},	{		"ID": 108,		"zipCode": "21235",		"city": "Baltimore"	},	{		"ID": 109,		"zipCode": "04416",		"city": "Bucksport"	},	{		"ID": 110,		"zipCode": "04063",		"city": "Ocean Park"	},	{		"ID": 111,		"zipCode": "13147",		"city": "Scipio Center"	},	{		"ID": 112,		"zipCode": "15225",		"city": "Pittsburgh"	},	{		"ID": 113,		"zipCode": "16116",		"city": "Edinburg"	},	{		"ID": 114,		"zipCode": "17508",		"city": "Brownstown"	},	{		"ID": 115,		"zipCode": "18915",		"city": "Colmar"	},	{		"ID": 116,		"zipCode": "17244",		"city": "Orrstown"	},	{		"ID": 117,		"zipCode": "18436",		"city": "Lake Ariel"	},	{		"ID": 118,		"zipCode": "07632",		"city": "Englewood Cliffs"	},	{		"ID": 119,		"zipCode": "06454",		"city": "Meriden"	},	{		"ID": 120,		"zipCode": "12887",		"city": "Whitehall"	},	{		"ID": 121,		"zipCode": "11954",		"city": "Montauk"	},	{		"ID": 122,		"zipCode": "20746",		"city": "Suitland"	},	{		"ID": 123,		"zipCode": "18510",		"city": "Scranton"	},	{		"ID": 124,		"zipCode": "17358",		"city": "Rossville"	},	{		"ID": 125,		"zipCode": "08610",		"city": "Trenton"	},	{		"ID": 126,		"zipCode": "10520",		"city": "Croton-on-Hudson"	},	{		"ID": 127,		"zipCode": "06411",		"city": "Cheshire"	},	{		"ID": 128,		"zipCode": "16364",		"city": "Venus"	},	{		"ID": 129,		"zipCode": "06051",		"city": "New Britain"	},	{		"ID": 130,		"zipCode": "12165",		"city": "Spencertown"	},	{		"ID": 131,		"zipCode": "17012",		"city": "Camp Hill"	},	{		"ID": 132,		"zipCode": "08739",		"city": "Normandy Beach"	},	{		"ID": 133,		"zipCode": "04428",		"city": "Eddington"	},	{		"ID": 134,		"zipCode": "13747",		"city": "Colliersville"	},	{		"ID": 135,		"zipCode": "01075",		"city": "South Hadley"	},	{		"ID": 136,		"zipCode": "18417",		"city": "Equinunk"	},	{		"ID": 137,		"zipCode": "21278",		"city": "Baltimore"	},	{		"ID": 138,		"zipCode": "18817",		"city": "East Smithfield"	},	{		"ID": 139,		"zipCode": "16141",		"city": "New Galilee"	},	{		"ID": 140,		"zipCode": "10979",		"city": "Sterling Forest"	},	{		"ID": 141,		"zipCode": "14757",		"city": "Mayville"	},	{		"ID": 142,		"zipCode": "17846",		"city": "Millville"	},	{		"ID": 143,		"zipCode": "16115",		"city": "Darlington"	},	{		"ID": 144,		"zipCode": "15562",		"city": "Springs"	},	{		"ID": 145,		"zipCode": "03607",		"city": "South Acworth"	},	{		"ID": 146,		"zipCode": "19428",		"city": "Conshohocken"	},	{		"ID": 147,		"zipCode": "15923",		"city": "Bolivar"	},	{		"ID": 148,		"zipCode": "07045",		"city": "Montville"	},	{		"ID": 149,		"zipCode": "16365",		"city": "Warren"	},	{		"ID": 150,		"zipCode": "17127",		"city": "Harrisburg"	},	{		"ID": 151,		"zipCode": "21750",		"city": "Hancock"	},	{		"ID": 152,		"zipCode": "07401",		"city": "Allendale"	},	{		"ID": 153,		"zipCode": "12953",		"city": "Malone"	},	{		"ID": 154,		"zipCode": "12514",		"city": "Clinton Corners"	},	{		"ID": 155,		"zipCode": "12996",		"city": "Willsboro"	},	{		"ID": 156,		"zipCode": "01534",		"city": "Northbridge"	},	{		"ID": 157,		"zipCode": "12307",		"city": "Schenectady"	},	{		"ID": 158,		"zipCode": "16925",		"city": "Gillett"	},	{		"ID": 159,		"zipCode": "21837",		"city": "Mardela Springs"	},	{		"ID": 160,		"zipCode": "13057",		"city": "East Syracuse"	},	{		"ID": 161,		"zipCode": "19954",		"city": "Houston"	},	{		"ID": 162,		"zipCode": "04353",		"city": "Whitefield"	},	{		"ID": 163,		"zipCode": "19058",		"city": "Levittown"	},	{		"ID": 164,		"zipCode": "14710",		"city": "Ashville"	},	{		"ID": 165,		"zipCode": "20898",		"city": "Gaithersburg"	},	{		"ID": 166,		"zipCode": "06492",		"city": "Wallingford"	},	{		"ID": 167,		"zipCode": "15251",		"city": "Pittsburgh"	},	{		"ID": 168,		"zipCode": "17551",		"city": "Millersville"	},	{		"ID": 169,		"zipCode": "05773",		"city": "Wallingford"	},	{		"ID": 170,		"zipCode": "12009",		"city": "Altamont"	},	{		"ID": 171,		"zipCode": "15053",		"city": "Joffre"	},	{		"ID": 172,		"zipCode": "03055",		"city": "Milford"	},	{		"ID": 173,		"zipCode": "10571",		"city": "Pleasantville"	},	{		"ID": 174,		"zipCode": "08327",		"city": "Lessburg"	},	{		"ID": 175,		"zipCode": "14826",		"city": "Cohocton"	},	{		"ID": 176,		"zipCode": "13087",		"city": "Little York"	},	{		"ID": 177,		"zipCode": "04617",		"city": "Brooksville"	},	{		"ID": 178,		"zipCode": "12734",		"city": "Ferndale"	},	{		"ID": 179,		"zipCode": "17878",		"city": "Stillwater"	},	{		"ID": 180,		"zipCode": "03076",		"city": "Pelham"	},	{		"ID": 181,		"zipCode": "08554",		"city": "Roebling"	},	{		"ID": 182,		"zipCode": "03845",		"city": "Intervale"	},	{		"ID": 183,		"zipCode": "01517",		"city": "East Princeton"	},	{		"ID": 184,		"zipCode": "15752",		"city": "Kent"	},	{		"ID": 185,		"zipCode": "13021",		"city": "Auburn"	},	{		"ID": 186,		"zipCode": "14513",		"city": "Newark"	},	{		"ID": 187,		"zipCode": "15701",		"city": "Indiana"	},	{		"ID": 188,		"zipCode": "15439",		"city": "Gans"	},	{		"ID": 189,		"zipCode": "13786",		"city": "Harpersfield"	},	{		"ID": 190,		"zipCode": "05819",		"city": "Saint Johnsbury"	},	{		"ID": 191,		"zipCode": "16728",		"city": "De Young"	},	{		"ID": 192,		"zipCode": "07802",		"city": "Dover"	},	{		"ID": 193,		"zipCode": "13113",		"city": "Meridian"	},	{		"ID": 194,		"zipCode": "20538",		"city": "Immigration and Naturalization Service"	},	{		"ID": 195,		"zipCode": "15010",		"city": "Beaver Falls"	},	{		"ID": 196,		"zipCode": "04032",		"city": "Freeport"	},	{		"ID": 197,		"zipCode": "13739",		"city": "Bloomville"	},	{		"ID": 198,		"zipCode": "17563",		"city": "Peach Bottom"	},	{		"ID": 199,		"zipCode": "13104",		"city": "Manlius"	},	{		"ID": 200,		"zipCode": "15502",		"city": "Hidden Valley"	},	{		"ID": 201,		"zipCode": "02337",		"city": "Elmwood"	},	{		"ID": 202,		"zipCode": "07507",		"city": "Hawthorne"	},	{		"ID": 203,		"zipCode": "13325",		"city": "Constableville"	},	{		"ID": 204,		"zipCode": "16045",		"city": "Lyndora"	},	{		"ID": 205,		"zipCode": "13746",		"city": "Chenango Forks"	},	{		"ID": 206,		"zipCode": "10596",		"city": "Verplanck"	},	{		"ID": 207,		"zipCode": "08087",		"city": "Tuckerton"	},	{		"ID": 208,		"zipCode": "04416",		"city": "Bucksport"	},	{		"ID": 209,		"zipCode": "02421",		"city": "Lexington"	},	{		"ID": 210,		"zipCode": "13123",		"city": "North Bay"	},	{		"ID": 211,		"zipCode": "05151",		"city": "Perkinsville"	},	{		"ID": 212,		"zipCode": "06480",		"city": "Portland"	},	{		"ID": 213,		"zipCode": "17980",		"city": "Tower City"	},	{		"ID": 214,		"zipCode": "19896",		"city": "Wilmington"	},	{		"ID": 215,		"zipCode": "13324",		"city": "Cold Brook"	},	{		"ID": 216,		"zipCode": "20722",		"city": "Brentwood"	},	{		"ID": 217,		"zipCode": "17064",		"city": "Mount Gretna"	},	{		"ID": 218,		"zipCode": "17959",		"city": "New Philadelphia"	},	{		"ID": 219,		"zipCode": "06757",		"city": "Kent"	},	{		"ID": 220,		"zipCode": "18431",		"city": "Honesdale"	},	{		"ID": 221,		"zipCode": "04455",		"city": "Lee"	},	{		"ID": 222,		"zipCode": "18102",		"city": "Allentown"	},	{		"ID": 223,		"zipCode": "19358",		"city": "Modena"	},	{		"ID": 224,		"zipCode": "15281",		"city": "Pittsburgh"	},	{		"ID": 225,		"zipCode": "18218",		"city": "Coaldale"	},	{		"ID": 226,		"zipCode": "11930",		"city": "Amagansett"	},	{		"ID": 227,		"zipCode": "04051",		"city": "Lovell"	},	{		"ID": 228,		"zipCode": "04210",		"city": "Auburn"	},	{		"ID": 229,		"zipCode": "21749",		"city": "Hagerstown"	},	{		"ID": 230,		"zipCode": "15963",		"city": "Windber"	},	{		"ID": 231,		"zipCode": "11237",		"city": "Wyckoff Heights"	},	{		"ID": 232,		"zipCode": "16262",		"city": "Worthington"	},	{		"ID": 233,		"zipCode": "06378",		"city": "Stonington"	},	{		"ID": 234,		"zipCode": "15828",		"city": "Clarington"	},	{		"ID": 235,		"zipCode": "07733",		"city": "Holmdel"	},	{		"ID": 236,		"zipCode": "06384",		"city": "Voluntown"	},	{		"ID": 237,		"zipCode": "21681",		"city": "Ridgely"	},	{		"ID": 238,		"zipCode": "12494",		"city": "West Shokan"	},	{		"ID": 239,		"zipCode": "01440",		"city": "Gardner"	},	{		"ID": 240,		"zipCode": "05444",		"city": "Cambridge"	},	{		"ID": 241,		"zipCode": "18932",		"city": "Line Lexington"	},	{		"ID": 242,		"zipCode": "06129",		"city": "Wethersfield"	},	{		"ID": 243,		"zipCode": "04416",		"city": "Bucksport"	},	{		"ID": 244,		"zipCode": "12405",		"city": "Acra"	},	{		"ID": 245,		"zipCode": "15431",		"city": "Dunbar"	},	{		"ID": 246,		"zipCode": "16503",		"city": "Erie"	},	{		"ID": 247,		"zipCode": "19035",		"city": "Gladwyne"	},	{		"ID": 248,		"zipCode": "17044",		"city": "Lewistown"	},	{		"ID": 249,		"zipCode": "14624",		"city": "Rochester"	},	{		"ID": 250,		"zipCode": "20002",		"city": "Washington"	},	{		"ID": 251,		"zipCode": "02718",		"city": "East Taunton"	},	{		"ID": 252,		"zipCode": "07726",		"city": "Englishtown"	},	{		"ID": 253,		"zipCode": "06278",		"city": "Ashford"	},	{		"ID": 254,		"zipCode": "17850",		"city": "Montandon"	},	{		"ID": 255,		"zipCode": "01098",		"city": "Worthington"	},	{		"ID": 256,		"zipCode": "05853",		"city": "Morgan"	},	{		"ID": 257,		"zipCode": "14856",		"city": "Kanona"	},	{		"ID": 258,		"zipCode": "21750",		"city": "Hancock"	},	{		"ID": 259,		"zipCode": "01843",		"city": "Lawrence"	},	{		"ID": 260,		"zipCode": "08341",		"city": "Minotola"	},	{		"ID": 261,		"zipCode": "06084",		"city": "Tolland"	},	{		"ID": 262,		"zipCode": "19014",		"city": "Aston"	},	{		"ID": 263,		"zipCode": "05850",		"city": "Lyndon Center"	},	{		"ID": 264,		"zipCode": "02471",		"city": "Watertown"	},	{		"ID": 265,		"zipCode": "15333",		"city": "Fredericktown"	},	{		"ID": 266,		"zipCode": "11224",		"city": "Coney Island"	},	{		"ID": 267,		"zipCode": "12483",		"city": "Spring Glen"	},	{		"ID": 268,		"zipCode": "15713",		"city": "Aultman"	},	{		"ID": 269,		"zipCode": "15698",		"city": "Yukon"	},	{		"ID": 270,		"zipCode": "04459",		"city": "Mattawamkeag"	},	{		"ID": 271,		"zipCode": "08027",		"city": "Gibbstown"	},	{		"ID": 272,		"zipCode": "08901",		"city": "New Brunswick"	},	{		"ID": 273,		"zipCode": "20708",		"city": "Laurel"	},	{		"ID": 274,		"zipCode": "01195",		"city": "Springfield"	},	{		"ID": 275,		"zipCode": "16624",		"city": "Chest Springs"	},	{		"ID": 276,		"zipCode": "05770",		"city": "Shoreham"	},	{		"ID": 277,		"zipCode": "16933",		"city": "Mansfield"	},	{		"ID": 278,		"zipCode": "17555",		"city": "Narvon"	},	{		"ID": 279,		"zipCode": "21665",		"city": "Sherwood"	},	{		"ID": 280,		"zipCode": "04660",		"city": "Mount Desert"	},	{		"ID": 281,		"zipCode": "20906",		"city": "Silver Spring"	},	{		"ID": 282,		"zipCode": "04855",		"city": "Port Clyde"	},	{		"ID": 283,		"zipCode": "01079",		"city": "Thorndike"	},	{		"ID": 284,		"zipCode": "06857",		"city": "Norwalk"	},	{		"ID": 285,		"zipCode": "01701",		"city": "Framingham"	},	{		"ID": 286,		"zipCode": "18651",		"city": "Plymouth"	},	{		"ID": 287,		"zipCode": "21128",		"city": "Perry Hall"	},	{		"ID": 288,		"zipCode": "16673",		"city": "Roaring Spring"	},	{		"ID": 289,		"zipCode": "18231",		"city": "Kelayres"	},	{		"ID": 290,		"zipCode": "05458",		"city": "Grand Isle"	},	{		"ID": 291,		"zipCode": "17243",		"city": "Orbisonia"	},	{		"ID": 292,		"zipCode": "06492",		"city": "Wallingford"	},	{		"ID": 293,		"zipCode": "12742",		"city": "Harris"	},	{		"ID": 294,		"zipCode": "21082",		"city": "Hydes"	},	{		"ID": 295,		"zipCode": "03871",		"city": "Rye Beach"	},	{		"ID": 296,		"zipCode": "12941",		"city": "Jay"	},	{		"ID": 297,		"zipCode": "19460",		"city": "Phoenixville"	},	{		"ID": 298,		"zipCode": "16681",		"city": "Smokerun"	},	{		"ID": 299,		"zipCode": "07023",		"city": "Fanwood"	},	{		"ID": 300,		"zipCode": "01940",		"city": "Lynnfield"	},	{		"ID": 301,		"zipCode": "20771",		"city": "Greenbelt"	},	{		"ID": 302,		"zipCode": "13607",		"city": "Alexandria Bay"	},	{		"ID": 303,		"zipCode": "12958",		"city": "Mooers"	},	{		"ID": 304,		"zipCode": "16541",		"city": "Erie"	},	{		"ID": 305,		"zipCode": "17064",		"city": "Mount Gretna"	},	{		"ID": 306,		"zipCode": "04268",		"city": "Norway"	},	{		"ID": 307,		"zipCode": "11514",		"city": "Carle Place"	},	{		"ID": 308,		"zipCode": "12955",		"city": "Lyon Mountain"	},	{		"ID": 309,		"zipCode": "05471",		"city": "Montgomery Center"	},	{		"ID": 310,		"zipCode": "08349",		"city": "Port Norris"	},	{		"ID": 311,		"zipCode": "15312",		"city": "Avella"	},	{		"ID": 312,		"zipCode": "16113",		"city": "Clark"	},	{		"ID": 313,		"zipCode": "01056",		"city": "Ludlow"	},	{		"ID": 314,		"zipCode": "17959",		"city": "New Philadelphia"	},	{		"ID": 315,		"zipCode": "11750",		"city": "Huntington Station"	},	{		"ID": 316,		"zipCode": "17831",		"city": "Hummels Wharf"	},	{		"ID": 317,		"zipCode": "20707",		"city": "Laurel"	},	{		"ID": 318,		"zipCode": "19147",		"city": "Philadelphia"	},	{		"ID": 319,		"zipCode": "07201",		"city": "Elizabeth"	},	{		"ID": 320,		"zipCode": "15545",		"city": "Hyndman"	},	{		"ID": 321,		"zipCode": "12995",		"city": "Whippleville"	},	{		"ID": 322,		"zipCode": "12230",		"city": "Albany"	},	{		"ID": 323,		"zipCode": "04565",		"city": "Sebasco Estates"	},	{		"ID": 324,		"zipCode": "21117",		"city": "Owings Mills"	},	{		"ID": 325,		"zipCode": "19706",		"city": "Delaware City"	},	{		"ID": 326,		"zipCode": "21405",		"city": "Annapolis"	},	{		"ID": 327,		"zipCode": "17050",		"city": "Mechanicsburg"	},	{		"ID": 328,		"zipCode": "21140",		"city": "Riva"	},	{		"ID": 329,		"zipCode": "20866",		"city": "Burtonsville"	},	{		"ID": 330,		"zipCode": "02184",		"city": "Braintree"	},	{		"ID": 331,		"zipCode": "05868",		"city": "Troy"	},	{		"ID": 332,		"zipCode": "04745",		"city": "Frenchville"	},	{		"ID": 333,		"zipCode": "11958",		"city": "Peconic"	},	{		"ID": 334,		"zipCode": "08625",		"city": "Trenton"	},	{		"ID": 335,		"zipCode": "01038",		"city": "Hatfield"	},	{		"ID": 336,		"zipCode": "11514",		"city": "Carle Place"	},	{		"ID": 337,		"zipCode": "05033",		"city": "Bradford"	},	{		"ID": 338,		"zipCode": "02297",		"city": "Boston"	},	{		"ID": 339,		"zipCode": "04076",		"city": "Shapleigh"	},	{		"ID": 340,		"zipCode": "14127",		"city": "Orchard Park"	},	{		"ID": 341,		"zipCode": "17122",		"city": "Harrisburg"	},	{		"ID": 342,		"zipCode": "07640",		"city": "Harrington Park"	},	{		"ID": 343,		"zipCode": "20817",		"city": "Bethesda"	},	{		"ID": 344,		"zipCode": "18929",		"city": "Jamison"	},	{		"ID": 345,		"zipCode": "18413",		"city": "Clifford"	},	{		"ID": 346,		"zipCode": "01097",		"city": "Woronoco"	},	{		"ID": 347,		"zipCode": "08231",		"city": "Oceanville"	},	{		"ID": 348,		"zipCode": "21235",		"city": "Baltimore"	},	{		"ID": 349,		"zipCode": "15226",		"city": "Pittsburgh"	},	{		"ID": 350,		"zipCode": "08341",		"city": "Minotola"	},	{		"ID": 351,		"zipCode": "13460",		"city": "Sherburne"	},	{		"ID": 352,		"zipCode": "15043",		"city": "Georgetown"	},	{		"ID": 353,		"zipCode": "07931",		"city": "Far Hills"	},	{		"ID": 354,		"zipCode": "14449",		"city": "East Williamson"	},	{		"ID": 355,		"zipCode": "21052",		"city": "Fort Howard"	},	{		"ID": 356,		"zipCode": "19460",		"city": "Phoenixville"	},	{		"ID": 357,		"zipCode": "08533",		"city": "New Egypt"	},	{		"ID": 358,		"zipCode": "14059",		"city": "Elma"	},	{		"ID": 359,		"zipCode": "14525",		"city": "Pavilion"	},	{		"ID": 360,		"zipCode": "19390",		"city": "West Grove"	},	{		"ID": 361,		"zipCode": "04941",		"city": "Freedom"	},	{		"ID": 362,		"zipCode": "01815",		"city": "Woburn"	},	{		"ID": 363,		"zipCode": "13167",		"city": "West Monroe"	},	{		"ID": 364,		"zipCode": "03234",		"city": "Epsom"	},	{		"ID": 365,		"zipCode": "11776",		"city": "Port Jefferson Station"	},	{		"ID": 366,		"zipCode": "10523",		"city": "Elmsford"	},	{		"ID": 367,		"zipCode": "13655",		"city": "Hogansburg"	},	{		"ID": 368,		"zipCode": "12176",		"city": "Surprise"	},	{		"ID": 369,		"zipCode": "17731",		"city": "Eagles Mere"	},	{		"ID": 370,		"zipCode": "04003",		"city": "Bailey Island"	},	{		"ID": 371,		"zipCode": "14107",		"city": "Model City"	},	{		"ID": 372,		"zipCode": "20688",		"city": "Solomons"	},	{		"ID": 373,		"zipCode": "06460",		"city": "Milford"	},	{		"ID": 374,		"zipCode": "13077",		"city": "Homer"	},	{		"ID": 375,		"zipCode": "20613",		"city": "Brandywine"	},	{		"ID": 376,		"zipCode": "13024",		"city": "Auburn"	},	{		"ID": 377,		"zipCode": "07061",		"city": "Plainfield"	},	{		"ID": 378,		"zipCode": "16644",		"city": "Glasgow"	},	{		"ID": 379,		"zipCode": "02632",		"city": "Centerville"	},	{		"ID": 380,		"zipCode": "06071",		"city": "Somers"	},	{		"ID": 381,		"zipCode": "16674",		"city": "Robertsdale"	},	{		"ID": 382,		"zipCode": "01582",		"city": "Westborough"	},	{		"ID": 383,		"zipCode": "17107",		"city": "Harrisburg"	},	{		"ID": 384,		"zipCode": "01983",		"city": "Topsfield"	},	{		"ID": 385,		"zipCode": "15615",		"city": "Ardara"	},	{		"ID": 386,		"zipCode": "08933",		"city": "New Brunswick"	},	{		"ID": 387,		"zipCode": "15240",		"city": "Pittsburgh"	},	{		"ID": 388,		"zipCode": "20750",		"city": "Oxon Hill"	},	{		"ID": 389,		"zipCode": "14815",		"city": "Bradford"	},	{		"ID": 390,		"zipCode": "16319",		"city": "Cranberry"	},	{		"ID": 391,		"zipCode": "17552",		"city": "Mount Joy"	},	{		"ID": 392,		"zipCode": "17952",		"city": "Mary D"	},	{		"ID": 393,		"zipCode": "15233",		"city": "Pittsburgh"	},	{		"ID": 394,		"zipCode": "07078",		"city": "Short Hills"	},	{		"ID": 395,		"zipCode": "15711",		"city": "Anita"	},	{		"ID": 396,		"zipCode": "15078",		"city": "Slovan"	},	{		"ID": 397,		"zipCode": "19488",		"city": "Norristown"	},	{		"ID": 398,		"zipCode": "11380",		"city": "Elmhurst"	},	{		"ID": 399,		"zipCode": "10595",		"city": "Valhalla"	},	{		"ID": 400,		"zipCode": "07932",		"city": "Florham Park"	},	{		"ID": 401,		"zipCode": "14821",		"city": "Campbell"	},	{		"ID": 402,		"zipCode": "01535",		"city": "North Brookfield"	},	{		"ID": 403,		"zipCode": "15764",		"city": "Oliveburg"	},	{		"ID": 404,		"zipCode": "10913",		"city": "Blauvelt"	},	{		"ID": 405,		"zipCode": "21664",		"city": "Secretary"	},	{		"ID": 406,		"zipCode": "02636",		"city": "Centerville"	},	{		"ID": 407,		"zipCode": "17606",		"city": "Lancaster"	},	{		"ID": 408,		"zipCode": "17533",		"city": "Hopeland"	},	{		"ID": 409,		"zipCode": "15378",		"city": "Westland"	},	{		"ID": 410,		"zipCode": "17355",		"city": "Railroad"	},	{		"ID": 411,		"zipCode": "16860",		"city": "Munson"	},	{		"ID": 412,		"zipCode": "02668",		"city": "West Barnstable"	},	{		"ID": 413,		"zipCode": "18254",		"city": "Tresckow"	},	{		"ID": 414,		"zipCode": "08353",		"city": "Shiloh"	},	{		"ID": 415,		"zipCode": "16611",		"city": "Alexandria"	},	{		"ID": 416,		"zipCode": "15325",		"city": "Crucible"	},	{		"ID": 417,		"zipCode": "17250",		"city": "Rouzerville"	},	{		"ID": 418,		"zipCode": "16933",		"city": "Mansfield"	},	{		"ID": 419,		"zipCode": "01464",		"city": "Shirley"	},	{		"ID": 420,		"zipCode": "06268",		"city": "Storrs Mansfield"	},	{		"ID": 421,		"zipCode": "08647",		"city": "Trenton"	},	{		"ID": 422,		"zipCode": "15258",		"city": "Pittsburgh"	},	{		"ID": 423,		"zipCode": "02631",		"city": "Brewster"	},	{		"ID": 424,		"zipCode": "14480",		"city": "Lakeville"	},	{		"ID": 425,		"zipCode": "18225",		"city": "Harleigh"	},	{		"ID": 426,		"zipCode": "06870",		"city": "Old Greenwich"	},	{		"ID": 427,		"zipCode": "06494",		"city": "Wallingford"	},	{		"ID": 428,		"zipCode": "20645",		"city": "Issue"	},	{		"ID": 429,		"zipCode": "18321",		"city": "Bartonsville"	},	{		"ID": 430,		"zipCode": "12482",		"city": "South Cairo"	},	{		"ID": 431,		"zipCode": "08535",		"city": "Perrineville"	},	{		"ID": 432,		"zipCode": "21279",		"city": "Baltimore"	},	{		"ID": 433,		"zipCode": "15333",		"city": "Fredericktown"	},	{		"ID": 434,		"zipCode": "11499",		"city": "Jamaica"	},	{		"ID": 435,		"zipCode": "10605",		"city": "White Plains"	},	{		"ID": 436,		"zipCode": "21687",		"city": "Ridgely"	},	{		"ID": 437,		"zipCode": "07022",		"city": "Fairview"	},	{		"ID": 438,		"zipCode": "17301",		"city": "Abbottstown"	},	{		"ID": 439,		"zipCode": "01886",		"city": "Westford"	},	{		"ID": 440,		"zipCode": "06518",		"city": "Hamden"	},	{		"ID": 441,		"zipCode": "05483",		"city": "Sheldon"	},	{		"ID": 442,		"zipCode": "01061",		"city": "Northampton"	},	{		"ID": 443,		"zipCode": "15924",		"city": "Cairnbrook"	},	{		"ID": 444,		"zipCode": "04271",		"city": "Paris"	},	{		"ID": 445,		"zipCode": "21788",		"city": "Thurmont"	},	{		"ID": 446,		"zipCode": "07311",		"city": "Jersey City"	},	{		"ID": 447,		"zipCode": "11557",		"city": "Hewlett"	},	{		"ID": 448,		"zipCode": "13810",		"city": "Mount Vision"	},	{		"ID": 449,		"zipCode": "12008",		"city": "Alplaus"	},	{		"ID": 450,		"zipCode": "20787",		"city": "Hyattsville"	},	{		"ID": 451,		"zipCode": "17582",		"city": "Washington Boro"	},	{		"ID": 452,		"zipCode": "21155",		"city": "Upperco"	},	{		"ID": 453,		"zipCode": "13036",		"city": "Central Square"	},	{		"ID": 454,		"zipCode": "19330",		"city": "Cochranville"	},	{		"ID": 455,		"zipCode": "03216",		"city": "Andover"	},	{		"ID": 456,		"zipCode": "12405",		"city": "Acra"	},	{		"ID": 457,		"zipCode": "08805",		"city": "Bound Brook"	},	{		"ID": 458,		"zipCode": "10976",		"city": "Sparkill"	},	{		"ID": 459,		"zipCode": "06538",		"city": "New Haven"	},	{		"ID": 460,		"zipCode": "16681",		"city": "Smokerun"	},	{		"ID": 461,		"zipCode": "12811",		"city": "Bakers Mills"	},	{		"ID": 462,		"zipCode": "19017",		"city": "Chester Heights"	},	{		"ID": 463,		"zipCode": "21208",		"city": "Pikesville"	},	{		"ID": 464,		"zipCode": "15783",		"city": "West Lebanon"	},	{		"ID": 465,		"zipCode": "06753",		"city": "Cornwall"	},	{		"ID": 466,		"zipCode": "20899",		"city": "Gaithersburg"	},	{		"ID": 467,		"zipCode": "13674",		"city": "Pierrepont Manor"	},	{		"ID": 468,		"zipCode": "21074",		"city": "Hampstead"	},	{		"ID": 469,		"zipCode": "15027",		"city": "Conway"	},	{		"ID": 470,		"zipCode": "15722",		"city": "Carrolltown"	},	{		"ID": 471,		"zipCode": "19961",		"city": "Little Creek"	},	{		"ID": 472,		"zipCode": "15267",		"city": "Pittsburgh"	},	{		"ID": 473,		"zipCode": "15129",		"city": "South Park"	},	{		"ID": 474,		"zipCode": "04066",		"city": "Orrs Island"	},	{		"ID": 475,		"zipCode": "03032",		"city": "Auburn"	},	{		"ID": 476,		"zipCode": "08067",		"city": "Pedricktown"	},	{		"ID": 477,		"zipCode": "20604",		"city": "Waldorf"	},	{		"ID": 478,		"zipCode": "13155",		"city": "South Otselic"	},	{		"ID": 479,		"zipCode": "13505",		"city": "Utica"	},	{		"ID": 480,		"zipCode": "02059",		"city": "North Marshfield"	},	{		"ID": 481,		"zipCode": "13250",		"city": "Syracuse"	},	{		"ID": 482,		"zipCode": "08722",		"city": "Beachwood"	},	{		"ID": 483,		"zipCode": "21133",		"city": "Randallstown"	},	{		"ID": 484,		"zipCode": "19310",		"city": "Atglen"	},	{		"ID": 485,		"zipCode": "05151",		"city": "Perkinsville"	},	{		"ID": 486,		"zipCode": "19887",		"city": "Wilmington"	},	{		"ID": 487,		"zipCode": "17062",		"city": "Millerstown"	},	{		"ID": 488,		"zipCode": "18912",		"city": "Buckingham"	},	{		"ID": 489,		"zipCode": "06388",		"city": "West Mystic"	},	{		"ID": 490,		"zipCode": "15341",		"city": "Holbrook"	},	{		"ID": 491,		"zipCode": "06001",		"city": "Avon"	},	{		"ID": 492,		"zipCode": "06155",		"city": "Hartford"	},	{		"ID": 493,		"zipCode": "19063",		"city": "Media"	},	{		"ID": 494,		"zipCode": "11802",		"city": "Hicksville"	},	{		"ID": 495,		"zipCode": "07104",		"city": "Newark"	},	{		"ID": 496,		"zipCode": "19319",		"city": "Cheyney"	},	{		"ID": 497,		"zipCode": "04467",		"city": "Olamon"	},	{		"ID": 498,		"zipCode": "14881",		"city": "Slaterville Springs"	},	{		"ID": 499,		"zipCode": "01536",		"city": "North Grafton"	},	{		"ID": 500,		"zipCode": "16914",		"city": "Columbia Cross Roads"	},	{		"ID": 501,		"zipCode": "21244",		"city": "Windsor Mill"	},	{		"ID": 502,		"zipCode": "01844",		"city": "Methuen"	},	{		"ID": 503,		"zipCode": "07747",		"city": "Matawan"	},	{		"ID": 504,		"zipCode": "12245",		"city": "Albany"	},	{		"ID": 505,		"zipCode": "04631",		"city": "Eastport"	},	{		"ID": 506,		"zipCode": "01243",		"city": "Middlefield"	},	{		"ID": 507,		"zipCode": "13810",		"city": "Mount Vision"	},	{		"ID": 508,		"zipCode": "13214",		"city": "Syracuse"	},	{		"ID": 509,		"zipCode": "17058",		"city": "Mifflin"	},	{		"ID": 510,		"zipCode": "17066",		"city": "Mount Union"	},	{		"ID": 511,		"zipCode": "10928",		"city": "Highland Falls"	},	{		"ID": 512,		"zipCode": "04359",		"city": "South Gardiner"	},	{		"ID": 513,		"zipCode": "02662",		"city": "South Orleans"	},	{		"ID": 514,		"zipCode": "21822",		"city": "Eden"	},	{		"ID": 515,		"zipCode": "06505",		"city": "New Haven"	},	{		"ID": 516,		"zipCode": "05071",		"city": "South Woodstock"	},	{		"ID": 517,		"zipCode": "11571",		"city": "Rockville Centre"	},	{		"ID": 518,		"zipCode": "17327",		"city": "Glen Rock"	},	{		"ID": 519,		"zipCode": "20697",		"city": "Southern MD Facility"	},	{		"ID": 520,		"zipCode": "12228",		"city": "Albany"	},	{		"ID": 521,		"zipCode": "15662",		"city": "Luxor"	},	{		"ID": 522,		"zipCode": "13030",		"city": "Bridgeport"	},	{		"ID": 523,		"zipCode": "04259",		"city": "Monmouth"	},	{		"ID": 524,		"zipCode": "02584",		"city": "Nantucket"	},	{		"ID": 525,		"zipCode": "15870",		"city": "Wilcox"	},	{		"ID": 526,		"zipCode": "15732",		"city": "Creekside"	},	{		"ID": 527,		"zipCode": "04431",		"city": "East Orland"	},	{		"ID": 528,		"zipCode": "21624",		"city": "Claiborne"	},	{		"ID": 529,		"zipCode": "06235",		"city": "Chaplin"	},	{		"ID": 530,		"zipCode": "05829",		"city": "Derby"	},	{		"ID": 531,		"zipCode": "04740",		"city": "Easton"	},	{		"ID": 532,		"zipCode": "19096",		"city": "Wynnewood"	},	{		"ID": 533,		"zipCode": "18103",		"city": "Allentown"	},	{		"ID": 534,		"zipCode": "21065",		"city": "Hunt Valley"	},	{		"ID": 535,		"zipCode": "14752",		"city": "Lily Dale"	},	{		"ID": 536,		"zipCode": "12569",		"city": "Pleasant Valley"	},	{		"ID": 537,		"zipCode": "21205",		"city": "Baltimore"	},	{		"ID": 538,		"zipCode": "14550",		"city": "Silver Springs"	},	{		"ID": 539,		"zipCode": "02171",		"city": "Quincy"	},	{		"ID": 540,		"zipCode": "16948",		"city": "Ulysses"	},	{		"ID": 541,		"zipCode": "18036",		"city": "Coopersburg"	},	{		"ID": 542,		"zipCode": "01812",		"city": "Andover"	},	{		"ID": 543,		"zipCode": "16876",		"city": "Wallaceton"	},	{		"ID": 544,		"zipCode": "15696",		"city": "Youngstown"	},	{		"ID": 545,		"zipCode": "17201",		"city": "Chambersburg"	},	{		"ID": 546,		"zipCode": "17931",		"city": "Frackville"	},	{		"ID": 547,		"zipCode": "20997",		"city": "Silver Spring"	},	{		"ID": 548,		"zipCode": "10603",		"city": "White Plains"	},	{		"ID": 549,		"zipCode": "06757",		"city": "Kent"	},	{		"ID": 550,		"zipCode": "05039",		"city": "Corinth"	},	{		"ID": 551,		"zipCode": "01527",		"city": "Millbury"	},	{		"ID": 552,		"zipCode": "12029",		"city": "Canaan"	},	{		"ID": 553,		"zipCode": "04953",		"city": "Newport"	},	{		"ID": 554,		"zipCode": "16848",		"city": "Lamar"	},	{		"ID": 555,		"zipCode": "16115",		"city": "Darlington"	},	{		"ID": 556,		"zipCode": "10553",		"city": "Mount Vernon"	},	{		"ID": 557,		"zipCode": "21524",		"city": "Corriganville"	},	{		"ID": 558,		"zipCode": "08823",		"city": "Franklin Park"	},	{		"ID": 559,		"zipCode": "02054",		"city": "Millis"	},	{		"ID": 560,		"zipCode": "12257",		"city": "Albany"	},	{		"ID": 561,		"zipCode": "06112",		"city": "Hartford"	},	{		"ID": 562,		"zipCode": "01460",		"city": "Littleton"	},	{		"ID": 563,		"zipCode": "14784",		"city": "Stockton"	},	{		"ID": 564,		"zipCode": "03302",		"city": "Concord"	},	{		"ID": 565,		"zipCode": "08876",		"city": "Somerville"	},	{		"ID": 566,		"zipCode": "21088",		"city": "Lineboro"	},	{		"ID": 567,		"zipCode": "16433",		"city": "Saegertown"	},	{		"ID": 568,		"zipCode": "15225",		"city": "Pittsburgh"	},	{		"ID": 569,		"zipCode": "19017",		"city": "Chester Heights"	},	{		"ID": 570,		"zipCode": "15730",		"city": "Coolspring"	},	{		"ID": 571,		"zipCode": "04864",		"city": "Warren"	},	{		"ID": 572,		"zipCode": "14110",		"city": "North Boston"	},	{		"ID": 573,		"zipCode": "11770",		"city": "Ocean Beach"	},	{		"ID": 574,		"zipCode": "14550",		"city": "Silver Springs"	},	{		"ID": 575,		"zipCode": "12516",		"city": "Copake"	},	{		"ID": 576,		"zipCode": "05758",		"city": "Mount Holly"	},	{		"ID": 577,		"zipCode": "15781",		"city": "Walston"	},	{		"ID": 578,		"zipCode": "11235",		"city": "Sheepshead Bay"	},	{		"ID": 579,		"zipCode": "18438",		"city": "Lakeville"	},	{		"ID": 580,		"zipCode": "08328",		"city": "Malaga"	},	{		"ID": 581,		"zipCode": "18355",		"city": "Scotrun"	},	{		"ID": 582,		"zipCode": "13441",		"city": "Rome"	},	{		"ID": 583,		"zipCode": "21683",		"city": "Ridgely"	},	{		"ID": 584,		"zipCode": "19160",		"city": "Philadelphia"	},	{		"ID": 585,		"zipCode": "15773",		"city": "Saint Benedict"	},	{		"ID": 586,		"zipCode": "06084",		"city": "Tolland"	},	{		"ID": 587,		"zipCode": "18925",		"city": "Furlong"	},	{		"ID": 588,		"zipCode": "16108",		"city": "New Castle"	},	{		"ID": 589,		"zipCode": "01536",		"city": "North Grafton"	},	{		"ID": 590,		"zipCode": "01089",		"city": "West Springfield"	},	{		"ID": 591,		"zipCode": "12061",		"city": "East Greenbush"	},	{		"ID": 592,		"zipCode": "18098",		"city": "Emmaus"	},	{		"ID": 593,		"zipCode": "16210",		"city": "Adrian"	},	{		"ID": 594,		"zipCode": "01223",		"city": "Becket"	},	{		"ID": 595,		"zipCode": "19096",		"city": "Wynnewood"	},	{		"ID": 596,		"zipCode": "11720",		"city": "Centereach"	},	{		"ID": 597,		"zipCode": "14226",		"city": "Buffalo"	},	{		"ID": 598,		"zipCode": "18764",		"city": "Wilkes Barre"	},	{		"ID": 599,		"zipCode": "13803",		"city": "Marathon"	},	{		"ID": 600,		"zipCode": "10963",		"city": "Otisville"	}]