[	{		"ID": 1,		"zipCode": "15831",		"city": "Dagus Mines"	},	{		"ID": 2,		"zipCode": "07458",		"city": "Saddle River"	},	{		"ID": 3,		"zipCode": "18201",		"city": "Hazleton"	},	{		"ID": 4,		"zipCode": "06479",		"city": "Plantsville"	},	{		"ID": 5,		"zipCode": "17952",		"city": "Mary D"	},	{		"ID": 6,		"zipCode": "03287",		"city": "Wilmot"	},	{		"ID": 7,		"zipCode": "19311",		"city": "Avondale"	},	{		"ID": 8,		"zipCode": "13683",		"city": "Rooseveltown"	},	{		"ID": 9,		"zipCode": "13479",		"city": "Washington Mills"	},	{		"ID": 10,		"zipCode": "10579",		"city": "Putnam Valley"	},	{		"ID": 11,		"zipCode": "15633",		"city": "Forbes Road"	},	{		"ID": 12,		"zipCode": "01742",		"city": "Concord"	},	{		"ID": 13,		"zipCode": "06280",		"city": "Windham"	},	{		"ID": 14,		"zipCode": "07750",		"city": "Monmouth Beach"	},	{		"ID": 15,		"zipCode": "20785",		"city": "Hyattsville"	},	{		"ID": 16,		"zipCode": "10280",		"city": "Battery Park City"	},	{		"ID": 17,		"zipCode": "14783",		"city": "Steamburg"	},	{		"ID": 18,		"zipCode": "06024",		"city": "East Canaan"	},	{		"ID": 19,		"zipCode": "10701",		"city": "Yonkers"	},	{		"ID": 20,		"zipCode": "07670",		"city": "Tenafly"	}]