[{"ID":1,"zipCode":"21902","city":"Perry Point"},{"ID":2,"zipCode":"04849","city":"Lincolnville"},{"ID":3,"zipCode":"10703","city":"Yonkers"},{"ID":4,"zipCode":"18087","city":"Trexlertown"},{"ID":5,"zipCode":"08561","city":"Windsor"},{"ID":6,"zipCode":"04220","city":"Buckfield"},{"ID":7,"zipCode":"11802","city":"Hicksville"},{"ID":8,"zipCode":"03841","city":"Hampstead"},{"ID":9,"zipCode":"17745","city":"Lock Haven"},{"ID":10,"zipCode":"14782","city":"Sinclairville"},{"ID":11,"zipCode":"02152","city":"Winthrop"},{"ID":12,"zipCode":"11204","city":"Parkville"},{"ID":13,"zipCode":"13697","city":"Winthrop"},{"ID":14,"zipCode":"03583","city":"Jefferson"},{"ID":15,"zipCode":"13341","city":"Franklin Springs"},{"ID":16,"zipCode":"14103","city":"Medina"},{"ID":17,"zipCode":"15358","city":"Richeyville"},{"ID":18,"zipCode":"15464","city":"Mill Run"},{"ID":19,"zipCode":"08078","city":"Runnemede"},{"ID":20,"zipCode":"15637","city":"Herminie"},{"ID":21,"zipCode":"06415","city":"Colchester"},{"ID":22,"zipCode":"07863","city":"Oxford"},{"ID":23,"zipCode":"15260","city":"Pittsburgh"},{"ID":24,"zipCode":"15231","city":"Pittsburgh"},{"ID":25,"zipCode":"15478","city":"Smithfield"},{"ID":26,"zipCode":"20745","city":"Oxon Hill"},{"ID":27,"zipCode":"01537","city":"North Oxford"},{"ID":28,"zipCode":"17272","city":"Zullinger"},{"ID":29,"zipCode":"21156","city":"Upper Falls"},{"ID":30,"zipCode":"20658","city":"Marbury"},{"ID":31,"zipCode":"14001","city":"Akron"},{"ID":32,"zipCode":"01742","city":"Concord"},{"ID":33,"zipCode":"17250","city":"Rouzerville"},{"ID":34,"zipCode":"14586","city":"West Henrietta"},{"ID":35,"zipCode":"16681","city":"Smokerun"},{"ID":36,"zipCode":"21560","city":"Spring Gap"},{"ID":37,"zipCode":"12766","city":"North Branch"},{"ID":38,"zipCode":"19505","city":"Bechtelsville"},{"ID":39,"zipCode":"15856","city":"Rockton"},{"ID":40,"zipCode":"17106","city":"Harrisburg"},{"ID":41,"zipCode":"15675","city":"Penn"},{"ID":42,"zipCode":"11964","city":"Shelter Island"},{"ID":43,"zipCode":"21528","city":"Eckhart Mines"},{"ID":44,"zipCode":"15301","city":"Washington"},{"ID":45,"zipCode":"04965","city":"Palmyra"},{"ID":46,"zipCode":"16835","city":"Fleming"},{"ID":47,"zipCode":"11933","city":"Calverton"},{"ID":48,"zipCode":"11421","city":"Woodhaven"},{"ID":49,"zipCode":"16430","city":"North Springfield"},{"ID":50,"zipCode":"20540","city":"Library of Congress"},{"ID":51,"zipCode":"05860","city":"Orleans"},{"ID":52,"zipCode":"15442","city":"Grindstone"},{"ID":53,"zipCode":"16670","city":"Queen"},{"ID":54,"zipCode":"11705","city":"Bayport"},{"ID":55,"zipCode":"14042","city":"Delevan"},{"ID":56,"zipCode":"21625","city":"Cordova"},{"ID":57,"zipCode":"18017","city":"Bethlehem"},{"ID":58,"zipCode":"16049","city":"Parker"},{"ID":59,"zipCode":"21056","city":"Gibson Island"},{"ID":60,"zipCode":"03846","city":"Jackson"},{"ID":61,"zipCode":"10963","city":"Otisville"},{"ID":62,"zipCode":"08214","city":"Dennisville"},{"ID":63,"zipCode":"15733","city":"De Lancey"},{"ID":64,"zipCode":"04730","city":"Houlton"},{"ID":65,"zipCode":"05073","city":"Taftsville"},{"ID":66,"zipCode":"14883","city":"Spencer"},{"ID":67,"zipCode":"06416","city":"Cromwell"},{"ID":68,"zipCode":"13033","city":"Cato"},{"ID":69,"zipCode":"15101","city":"Allison Park"},{"ID":70,"zipCode":"21027","city":"Chase"},{"ID":71,"zipCode":"08550","city":"Princeton Junction"},{"ID":72,"zipCode":"05452","city":"Essex Junction"},{"ID":73,"zipCode":"21214","city":"Baltimore"},{"ID":74,"zipCode":"01343","city":"Drury"},{"ID":75,"zipCode":"13409","city":"Munnsville"},{"ID":76,"zipCode":"10901","city":"Suffern"},{"ID":77,"zipCode":"12601","city":"Poughkeepsie"},{"ID":78,"zipCode":"15106","city":"Carnegie"},{"ID":79,"zipCode":"17109","city":"Harrisburg"},{"ID":80,"zipCode":"13305","city":"Beaver Falls"},{"ID":81,"zipCode":"21791","city":"Union Bridge"},{"ID":82,"zipCode":"16601","city":"Altoona"},{"ID":83,"zipCode":"19182","city":"Philadelphia"},{"ID":84,"zipCode":"13343","city":"Glenfield"},{"ID":85,"zipCode":"16039","city":"Herman"},{"ID":86,"zipCode":"13471","city":"Taberg"},{"ID":87,"zipCode":"12572","city":"Rhinebeck"},{"ID":88,"zipCode":"13685","city":"Sackets Harbor"},{"ID":89,"zipCode":"17567","city":"Reamstown"},{"ID":90,"zipCode":"10588","city":"Shrub Oak"},{"ID":91,"zipCode":"18346","city":"Pocono Summit"},{"ID":92,"zipCode":"13205","city":"Syracuse"},{"ID":93,"zipCode":"08320","city":"Fairton"},{"ID":94,"zipCode":"19316","city":"Brandamore"},{"ID":95,"zipCode":"05671","city":"Waterbury"},{"ID":96,"zipCode":"21032","city":"Crownsville"},{"ID":97,"zipCode":"01854","city":"Lowell"},{"ID":98,"zipCode":"12496","city":"Windham"},{"ID":99,"zipCode":"15057","city":"McDonald"},{"ID":100,"zipCode":"12065","city":"Clifton Park"},{"ID":101,"zipCode":"04846","city":"Glen Cove"},{"ID":102,"zipCode":"17329","city":"Glenville"},{"ID":103,"zipCode":"21746","city":"Hagerstown"},{"ID":104,"zipCode":"05075","city":"Thetford Center"},{"ID":105,"zipCode":"17228","city":"Harrisonville"},{"ID":106,"zipCode":"14218","city":"Lackawanna"},{"ID":107,"zipCode":"13442","city":"Rome"},{"ID":108,"zipCode":"12815","city":"Brant Lake"},{"ID":109,"zipCode":"04078","city":"South Freeport"},{"ID":110,"zipCode":"14048","city":"Dunkirk"},{"ID":111,"zipCode":"07461","city":"Sussex"},{"ID":112,"zipCode":"04496","city":"Winterport"},{"ID":113,"zipCode":"19438","city":"Harleysville"},{"ID":114,"zipCode":"03840","city":"Greenland"},{"ID":115,"zipCode":"07480","city":"West Milford"},{"ID":116,"zipCode":"12542","city":"Marlboro"},{"ID":117,"zipCode":"04220","city":"Buckfield"},{"ID":118,"zipCode":"21235","city":"Baltimore"},{"ID":119,"zipCode":"13843","city":"South New Berlin"},{"ID":120,"zipCode":"20902","city":"Silver Spring"},{"ID":121,"zipCode":"14012","city":"Barker"},{"ID":122,"zipCode":"03303","city":"Concord"},{"ID":123,"zipCode":"11582","city":"Valley Stream"},{"ID":124,"zipCode":"16403","city":"Cambridge Springs"},{"ID":125,"zipCode":"01516","city":"East Douglas"},{"ID":126,"zipCode":"07078","city":"Short Hills"},{"ID":127,"zipCode":"16827","city":"Boalsburg"},{"ID":128,"zipCode":"05647","city":"Cabot"},{"ID":129,"zipCode":"04553","city":"Newcastle"},{"ID":130,"zipCode":"21714","city":"Braddock Heights"},{"ID":131,"zipCode":"16876","city":"Wallaceton"},{"ID":132,"zipCode":"11714","city":"Bethpage"},{"ID":133,"zipCode":"16881","city":"Woodland"},{"ID":134,"zipCode":"10956","city":"New City"},{"ID":135,"zipCode":"02669","city":"West Chatham"},{"ID":136,"zipCode":"15006","city":"Bairdford"},{"ID":137,"zipCode":"21157","city":"Westminster"},{"ID":138,"zipCode":"21749","city":"Hagerstown"},{"ID":139,"zipCode":"05905","city":"Guildhall"},{"ID":140,"zipCode":"18917","city":"Dublin"},{"ID":141,"zipCode":"16024","city":"Callery"},{"ID":142,"zipCode":"06850","city":"Norwalk"},{"ID":143,"zipCode":"12823","city":"Cossayuna"},{"ID":144,"zipCode":"21156","city":"Upper Falls"},{"ID":145,"zipCode":"12257","city":"Albany"},{"ID":146,"zipCode":"19520","city":"Elverson"},{"ID":147,"zipCode":"13617","city":"Canton"},{"ID":148,"zipCode":"06820","city":"Darien"},{"ID":149,"zipCode":"15554","city":"New Paris"},{"ID":150,"zipCode":"18813","city":"Brooklyn"},{"ID":151,"zipCode":"19905","city":"Dover"},{"ID":152,"zipCode":"18462","city":"Starrucca"},{"ID":153,"zipCode":"14454","city":"Geneseo"},{"ID":154,"zipCode":"14561","city":"Stanley"},{"ID":155,"zipCode":"05656","city":"Johnson"},{"ID":156,"zipCode":"16440","city":"Venango"},{"ID":157,"zipCode":"04022","city":"Denmark"},{"ID":158,"zipCode":"16866","city":"Philipsburg"},{"ID":159,"zipCode":"06710","city":"Waterbury"},{"ID":160,"zipCode":"18325","city":"Canadensis"},{"ID":161,"zipCode":"12405","city":"Acra"},{"ID":162,"zipCode":"13080","city":"Jordan"},{"ID":163,"zipCode":"17921","city":"Ashland"},{"ID":164,"zipCode":"18947","city":"Pipersville"},{"ID":165,"zipCode":"20792","city":"Upper Marlboro"},{"ID":166,"zipCode":"17307","city":"Biglerville"},{"ID":167,"zipCode":"03444","city":"Dublin"},{"ID":168,"zipCode":"15321","city":"Cecil"},{"ID":169,"zipCode":"15535","city":"Clearville"},{"ID":170,"zipCode":"20656","city":"Loveville"},{"ID":171,"zipCode":"11237","city":"Wyckoff Heights"},{"ID":172,"zipCode":"05830","city":"Derby Line"},{"ID":173,"zipCode":"12427","city":"Elka Park"},{"ID":174,"zipCode":"19119","city":"Philadelphia"},{"ID":175,"zipCode":"13812","city":"Nichols"},{"ID":176,"zipCode":"06606","city":"Bridgeport"},{"ID":177,"zipCode":"04648","city":"Jonesboro"},{"ID":178,"zipCode":"15626","city":"Delmont"},{"ID":179,"zipCode":"15037","city":"Elizabeth"},{"ID":180,"zipCode":"17124","city":"Harrisburg"},{"ID":181,"zipCode":"15021","city":"Burgettstown"},{"ID":182,"zipCode":"18050","city":"Flicksville"},{"ID":183,"zipCode":"21048","city":"Finksburg"},{"ID":184,"zipCode":"14280","city":"Buffalo"},{"ID":185,"zipCode":"18043","city":"Easton"},{"ID":186,"zipCode":"16699","city":"Cresson"},{"ID":187,"zipCode":"15468","city":"New Salem"},{"ID":188,"zipCode":"13795","city":"Kirkwood"},{"ID":189,"zipCode":"13357","city":"Ilion"},{"ID":190,"zipCode":"15547","city":"Jennerstown"},{"ID":191,"zipCode":"06414","city":"Cobalt"},{"ID":192,"zipCode":"06508","city":"New Haven"},{"ID":193,"zipCode":"13744","city":"Castle Creek"},{"ID":194,"zipCode":"07738","city":"Lincroft"},{"ID":195,"zipCode":"04556","city":"Edgecomb"},{"ID":196,"zipCode":"04256","city":"Mechanic Falls"},{"ID":197,"zipCode":"20811","city":"Bethesda"},{"ID":198,"zipCode":"05647","city":"Cabot"},{"ID":199,"zipCode":"16942","city":"Osceola"},{"ID":200,"zipCode":"15763","city":"Northpoint"}]